FENGYUN 1C DEB          
1 31171U 99025BHZ 26115.18207682  .00007459  00000+0  21888-2 0  9990
2 31171  98.0275 100.7889 0144837 273.6566 143.5726 14.38131869977466
FENGYUN 1C DEB          
1 31172U 99025BJA 26114.45724367  .00000175  00000+0  73617-4 0  9991
2 31172  98.4264 120.0896 0147920 235.1979 123.5213 14.31642111995255
FENGYUN 1C DEB          
1 31175U 99025BJD 26111.75726416  .00018431  00000+0  31546-2 0  9998
2 31175  98.3984 119.4155 0069123 119.4344 241.3782 14.67287165675410
FENGYUN 1C DEB          
1 31177U 99025BJF 26113.19913671  .00001945  00000+0  18355-2 0  9996
2 31177  98.7585  18.6266 0306703 330.0109 186.1278 13.63315091680028
FENGYUN 1C DEB          
1 31178U 99025BJG 26115.27898095  .00002836  00000+0  11798-2 0  9994
2 31178  99.5090 133.1465 0121570 298.2809  60.6142 14.23353108977148
FENGYUN 1C DEB          
1 31179U 99025BJH 26110.77676924  .00001013  00000+0  68133-3 0  9992
2 31179  99.0092 132.2762 0214616   9.0264 351.4661 13.92332246637362
FENGYUN 1C DEB          
1 31180U 99025BJJ 26114.20626397  .00000296  00000+0  15827-3 0  9999
2 31180  99.2348 245.9747 0497590  72.5618  43.3669 13.70569824658815
FENGYUN 1C DEB          
1 31181U 99025BJK 26115.05008053  .00000974  00000+0  54590-3 0  9990
2 31181  98.7583 149.6894 0047907  56.7990 333.4222 14.12361747976490
FENGYUN 1C DEB          
1 31182U 99025BJL 26115.44409279  .00000482  00000+0  27155-3 0  9990
2 31182  98.6940 105.7386 0024002 114.9975  38.3165 14.14756564979719
FENGYUN 1C DEB          
1 31183U 99025BJM 26115.75040365  .00003987  00000+0  98700-3 0  9999
2 31183  99.0480 114.5045 0047437  67.2661 106.7933 14.51906336994268
FENGYUN 1C DEB          
1 31185U 99025BJP 26111.26827688  .00000367  00000+0  26117-3 0  9996
2 31185  98.8411 108.9806 0041586 104.7367 255.8414 14.03104569641536
FENGYUN 1C DEB          
1 31186U 99025BJQ 26115.58240830  .00000646  00000+0  36932-3 0  9990
2 31186  99.1807  39.3026 0026775  48.3115  77.3403 14.13152379979956
FENGYUN 1C DEB          
1 31187U 99025BJR 26115.62066612  .00012391  00000+0  17273-2 0  9996
2 31187  99.2319 359.8432 0206362 176.5691 183.6981 14.64261729710560
FENGYUN 1C DEB          
1 31188U 99025BJS 26115.83828081  .00003007  00000+0  12863-2 0  9990
2 31188  98.7339 187.9509 0059031 219.7493 208.5921 14.24739900982458
FENGYUN 1C DEB          
1 31190U 99025BJU 26115.47427794  .00000899  00000+0  58542-3 0  9990
2 31190  98.8136 129.1962 0066609 244.9096 114.5149 14.03920876974232
FENGYUN 1C DEB          
1 31191U 99025BJV 26115.72855911  .00000713  00000+0  22461-3 0  9991
2 31191  98.7760  25.2057 0092587 155.5986 204.9627 14.41146921999421
