[{"OBJECT_NAME":"FENGYUN 1C DEB","OBJECT_ID":"1999-025BHZ","EPOCH":"2026-04-25T04:22:11.437248","MEAN_MOTION":14.38131869,"ECCENTRICITY":0.01448374,"INCLINATION":98.0275,"RA_OF_ASC_NODE":100.7889,"ARG_OF_PERICENTER":273.6566,"MEAN_ANOMALY":143.5726,"EPHEMERIS_TYPE":0,"CLASSIFICATION_TYPE":"U","NORAD_CAT_ID":31171,"ELEMENT_SET_NO":999,"REV_AT_EPOCH":97746,"BSTAR":0.002188839,"MEAN_MOTION_DOT":7.459e-5,"MEAN_MOTION_DDOT":0},{"OBJECT_NAME":"FENGYUN 1C DEB","OBJECT_ID":"1999-025BJA","EPOCH":"2026-04-24T10:58:25.853088","MEAN_MOTION":14.31642111,"ECCENTRICITY":0.01479208,"INCLINATION":98.4264,"RA_OF_ASC_NODE":120.0896,"ARG_OF_PERICENTER":235.1979,"MEAN_ANOMALY":123.5213,"EPHEMERIS_TYPE":0,"CLASSIFICATION_TYPE":"U","NORAD_CAT_ID":31172,"ELEMENT_SET_NO":999,"REV_AT_EPOCH":99525,"BSTAR":7.3617448e-5,"MEAN_MOTION_DOT":1.75e-6,"MEAN_MOTION_DDOT":0},{"OBJECT_NAME":"FENGYUN 1C DEB","OBJECT_ID":"1999-025BJD","EPOCH":"2026-04-21T18:10:27.623424","MEAN_MOTION":14.67287165,"ECCENTRICITY":0.0069123,"INCLINATION":98.3984,"RA_OF_ASC_NODE":119.4155,"ARG_OF_PERICENTER":119.4344,"MEAN_ANOMALY":241.3782,"EPHEMERIS_TYPE":0,"CLASSIFICATION_TYPE":"U","NORAD_CAT_ID":31175,"ELEMENT_SET_NO":999,"REV_AT_EPOCH":67541,"BSTAR":0.0031545863,"MEAN_MOTION_DOT":0.00018431,"MEAN_MOTION_DDOT":0},{"OBJECT_NAME":"FENGYUN 1C DEB","OBJECT_ID":"1999-025BJF","EPOCH":"2026-04-23T04:46:45.411744","MEAN_MOTION":13.63315091,"ECCENTRICITY":0.03067031,"INCLINATION":98.7585,"RA_OF_ASC_NODE":18.6266,"ARG_OF_PERICENTER":330.0109,"MEAN_ANOMALY":186.1278,"EPHEMERIS_TYPE":0,"CLASSIFICATION_TYPE":"U","NORAD_CAT_ID":31177,"ELEMENT_SET_NO":999,"REV_AT_EPOCH":68002,"BSTAR":0.0018354645,"MEAN_MOTION_DOT":1.945e-5,"MEAN_MOTION_DDOT":0},{"OBJECT_NAME":"FENGYUN 1C DEB","OBJECT_ID":"1999-025BJG","EPOCH":"2026-04-25T06:41:43.954080","MEAN_MOTION":14.23353108,"ECCENTRICITY":0.012157,"INCLINATION":99.509,"RA_OF_ASC_NODE":133.1465,"ARG_OF_PERICENTER":298.2809,"MEAN_ANOMALY":60.6142,"EPHEMERIS_TYPE":0,"CLASSIFICATION_TYPE":"U","NORAD_CAT_ID":31178,"ELEMENT_SET_NO":999,"REV_AT_EPOCH":97714,"BSTAR":0.0011798,"MEAN_MOTION_DOT":2.836e-5,"MEAN_MOTION_DDOT":0},{"OBJECT_NAME":"FENGYUN 1C DEB","OBJECT_ID":"1999-025BJH","EPOCH":"2026-04-20T18:38:32.862336","MEAN_MOTION":13.92332246,"ECCENTRICITY":0.02146168,"INCLINATION":99.0092,"RA_OF_ASC_NODE":132.2762,"ARG_OF_PERICENTER":9.0264,"MEAN_ANOMALY":351.4661,"EPHEMERIS_TYPE":0,"CLASSIFICATION_TYPE":"U","NORAD_CAT_ID":31179,"ELEMENT_SET_NO":999,"REV_AT_EPOCH":63736,"BSTAR":0.00068132871,"MEAN_MOTION_DOT":1.013e-5,"MEAN_MOTION_DDOT":0},{"OBJECT_NAME":"FENGYUN 1C DEB","OBJECT_ID":"1999-025BJJ","EPOCH":"2026-04-24T04:57:01.207008","MEAN_MOTION":13.70569824,"ECCENTRICITY":0.04975908,"INCLINATION":99.2348,"RA_OF_ASC_NODE":245.9747,"ARG_OF_PERICENTER":72.5618,"MEAN_ANOMALY":43.3669,"EPHEMERIS_TYPE":0,"CLASSIFICATION_TYPE":"U","NORAD_CAT_ID":31180,"ELEMENT_SET_NO":999,"REV_AT_EPOCH":65881,"BSTAR":0.00015826599,"MEAN_MOTION_DOT":2.96e-6,"MEAN_MOTION_DDOT":0},{"OBJECT_NAME":"FENGYUN 1C DEB","OBJECT_ID":"1999-025BJK","EPOCH":"2026-04-25T01:12:06.957792","MEAN_MOTION":14.12361747,"ECCENTRICITY":0.00479078,"INCLINATION":98.7583,"RA_OF_ASC_NODE":149.6894,"ARG_OF_PERICENTER":56.799,"MEAN_ANOMALY":333.4222,"EPHEMERIS_TYPE":0,"CLASSIFICATION_TYPE":"U","NORAD_CAT_ID":31181,"ELEMENT_SET_NO":999,"REV_AT_EPOCH":97649,"BSTAR":0.0005459035,"MEAN_MOTION_DOT":9.74e-6,"MEAN_MOTION_DDOT":0},{"OBJECT_NAME":"FENGYUN 1C DEB","OBJECT_ID":"1999-025BJL","EPOCH":"2026-04-25T10:39:29.617056","MEAN_MOTION":14.14756564,"ECCENTRICITY":0.0024002,"INCLINATION":98.694,"RA_OF_ASC_NODE":105.7386,"ARG_OF_PERICENTER":114.9975,"MEAN_ANOMALY":38.3165,"EPHEMERIS_TYPE":0,"CLASSIFICATION_TYPE":"U","NORAD_CAT_ID":31182,"ELEMENT_SET_NO":999,"REV_AT_EPOCH":97971,"BSTAR":0.00027155,"MEAN_MOTION_DOT":4.82e-6,"MEAN_MOTION_DDOT":0},{"OBJECT_NAME":"FENGYUN 1C DEB","OBJECT_ID":"1999-025BJM","EPOCH":"2026-04-25T18:00:34.875360","MEAN_MOTION":14.51906336,"ECCENTRICITY":0.0047437,"INCLINATION":99.048,"RA_OF_ASC_NODE":114.5045,"ARG_OF_PERICENTER":67.2661,"MEAN_ANOMALY":106.7933,"EPHEMERIS_TYPE":0,"CLASSIFICATION_TYPE":"U","NORAD_CAT_ID":31183,"ELEMENT_SET_NO":999,"REV_AT_EPOCH":99426,"BSTAR":0.000987,"MEAN_MOTION_DOT":3.987e-5,"MEAN_MOTION_DDOT":0},{"OBJECT_NAME":"FENGYUN 1C DEB","OBJECT_ID":"1999-025BJP","EPOCH":"2026-04-21T06:26:19.122432","MEAN_MOTION":14.03104569,"ECCENTRICITY":0.00415864,"INCLINATION":98.8411,"RA_OF_ASC_NODE":108.9806,"ARG_OF_PERICENTER":104.7367,"MEAN_ANOMALY":255.8414,"EPHEMERIS_TYPE":0,"CLASSIFICATION_TYPE":"U","NORAD_CAT_ID":31185,"ELEMENT_SET_NO":999,"REV_AT_EPOCH":64153,"BSTAR":0.00026116796,"MEAN_MOTION_DOT":3.67e-6,"MEAN_MOTION_DDOT":0},{"OBJECT_NAME":"FENGYUN 1C DEB","OBJECT_ID":"1999-025BJQ","EPOCH":"2026-04-25T13:58:40.077120","MEAN_MOTION":14.13152379,"ECCENTRICITY":0.0026775,"INCLINATION":99.1807,"RA_OF_ASC_NODE":39.3026,"ARG_OF_PERICENTER":48.3115,"MEAN_ANOMALY":77.3403,"EPHEMERIS_TYPE":0,"CLASSIFICATION_TYPE":"U","NORAD_CAT_ID":31186,"ELEMENT_SET_NO":999,"REV_AT_EPOCH":97995,"BSTAR":0.00036932,"MEAN_MOTION_DOT":6.46e-6,"MEAN_MOTION_DDOT":0},{"OBJECT_NAME":"FENGYUN 1C DEB","OBJECT_ID":"1999-025BJR","EPOCH":"2026-04-25T14:53:45.552768","MEAN_MOTION":14.64261729,"ECCENTRICITY":0.0206362,"INCLINATION":99.2319,"RA_OF_ASC_NODE":359.8432,"ARG_OF_PERICENTER":176.5691,"MEAN_ANOMALY":183.6981,"EPHEMERIS_TYPE":0,"CLASSIFICATION_TYPE":"U","NORAD_CAT_ID":31187,"ELEMENT_SET_NO":999,"REV_AT_EPOCH":71056,"BSTAR":0.0017273,"MEAN_MOTION_DOT":0.00012391,"MEAN_MOTION_DDOT":0},{"OBJECT_NAME":"FENGYUN 1C DEB","OBJECT_ID":"1999-025BJS","EPOCH":"2026-04-25T20:07:07.461984","MEAN_MOTION":14.247399,"ECCENTRICITY":0.0059031,"INCLINATION":98.7339,"RA_OF_ASC_NODE":187.9509,"ARG_OF_PERICENTER":219.7493,"MEAN_ANOMALY":208.5921,"EPHEMERIS_TYPE":0,"CLASSIFICATION_TYPE":"U","NORAD_CAT_ID":31188,"ELEMENT_SET_NO":999,"REV_AT_EPOCH":98245,"BSTAR":0.0012863,"MEAN_MOTION_DOT":3.007e-5,"MEAN_MOTION_DDOT":0},{"OBJECT_NAME":"FENGYUN 1C DEB","OBJECT_ID":"1999-025BJU","EPOCH":"2026-04-25T11:22:57.614016","MEAN_MOTION":14.03920876,"ECCENTRICITY":0.0066609,"INCLINATION":98.8136,"RA_OF_ASC_NODE":129.1962,"ARG_OF_PERICENTER":244.9096,"MEAN_ANOMALY":114.5149,"EPHEMERIS_TYPE":0,"CLASSIFICATION_TYPE":"U","NORAD_CAT_ID":31190,"ELEMENT_SET_NO":999,"REV_AT_EPOCH":97423,"BSTAR":0.00058542,"MEAN_MOTION_DOT":8.99e-6,"MEAN_MOTION_DDOT":0},{"OBJECT_NAME":"FENGYUN 1C DEB","OBJECT_ID":"1999-025BJV","EPOCH":"2026-04-25T17:29:07.507104","MEAN_MOTION":14.41146921,"ECCENTRICITY":0.0092587,"INCLINATION":98.776,"RA_OF_ASC_NODE":25.2057,"ARG_OF_PERICENTER":155.5986,"MEAN_ANOMALY":204.9627,"EPHEMERIS_TYPE":0,"CLASSIFICATION_TYPE":"U","NORAD_CAT_ID":31191,"ELEMENT_SET_NO":999,"REV_AT_EPOCH":99942,"BSTAR":0.00022461,"MEAN_MOTION_DOT":7.13e-6,"MEAN_MOTION_DDOT":0}]
